{
    "links": {
        "self": "http://www.neowsapp.com/rest/v1/neo/54016527?api_key=iIulBulltgU6a56xZRHN4H3l9WmuAYTsLGpBGhQ2"
    },
    "id": "54016527",
    "neo_reference_id": "54016527",
    "name": "(2020 GY2)",
    "designation": "2020 GY2",
    "nasa_jpl_url": "http://ssd.jpl.nasa.gov/sbdb.cgi?sstr=54016527",
    "absolute_magnitude_h": 23.643,
    "estimated_diameter": {
        "kilometers": {
            "estimated_diameter_min": 0.0496540842,
            "estimated_diameter_max": 0.1110299077
        },
        "meters": {
            "estimated_diameter_min": 49.6540842296,
            "estimated_diameter_max": 111.029907698
        },
        "miles": {
            "estimated_diameter_min": 0.030853608,
            "estimated_diameter_max": 0.0689907648
        },
        "feet": {
            "estimated_diameter_min": 162.907105704,
            "estimated_diameter_max": 364.2713623718
        }
    },
    "is_potentially_hazardous_asteroid": false,
    "close_approach_data": [
        {
            "close_approach_date": "2020-04-30",
            "close_approach_date_full": "2020-Apr-30 03:45",
            "epoch_date_close_approach": 1588218300000,
            "relative_velocity": {
                "kilometers_per_second": "16.2719211927",
                "kilometers_per_hour": "58578.9162937272",
                "miles_per_hour": "36398.6605159551"
            },
            "miss_distance": {
                "astronomical": "0.0439889915",
                "lunar": "17.1117176935",
                "kilometers": "6580659.431848105",
                "miles": "4089032.160009649"
            },
            "orbiting_body": "Earth"
        },
        {
            "close_approach_date": "2025-11-02",
            "close_approach_date_full": "2025-Nov-02 11:59",
            "epoch_date_close_approach": 1762084740000,
            "relative_velocity": {
                "kilometers_per_second": "5.8937926572",
                "kilometers_per_hour": "21217.6535660389",
                "miles_per_hour": "13183.8247949646"
            },
            "miss_distance": {
                "astronomical": "1.6264292158",
                "lunar": "632.6809649462",
                "kilometers": "243310346.389450346",
                "miles": "151186038.6566369348"
            },
            "orbiting_body": "Juptr"
        }
    ],
    "orbital_data": {
        "orbit_id": "12",
        "orbit_determination_date": "2020-08-21 06:33:52",
        "first_observation_date": "2020-04-15",
        "last_observation_date": "2020-05-01",
        "data_arc_in_days": 16,
        "observations_used": 98,
        "orbit_uncertainty": "8",
        "minimum_orbit_intersection": ".0132718",
        "jupiter_tisserand_invariant": "3.175",
        "epoch_osculation": "2458959.5",
        "eccentricity": ".6531752535321115",
        "semi_major_axis": "2.426389203298891",
        "inclination": "5.081093837470369",
        "ascending_node_longitude": "52.18172179921983",
        "orbital_period": "1380.508624321644",
        "perihelion_distance": ".8415318202665598",
        "perihelion_argument": "225.6738250420121",
        "aphelion_distance": "4.011246586331222",
        "perihelion_time": "2459008.307485347833",
        "mean_anomaly": "347.2723035440262",
        "mean_motion": ".2607734523765812",
        "equinox": "J2000",
        "orbit_class": {
            "orbit_class_type": "APO",
            "orbit_class_description": "Near-Earth asteroid orbits which cross the Earth’s orbit similar to that of 1862 Apollo",
            "orbit_class_range": "a (semi-major axis) > 1.0 AU; q (perihelion) < 1.017 AU"
        }
    },
    "is_sentry_object": false
}